#aV2024  4 17  0  0  0.00000000     288 DD+AD WGS84 FIT  NGA
## 2310 259200.00000000   300.00000000 60417 0.0000000000000
+   32     1  2  3  4  5  6  7  8  9 10 11 12 13 14 15 16 17
+         18 19 20 21 22 23 24 25 26 27 28 29 30 31 32  0  0
+          0  0  0  0  0  0  0  0  0  0  0  0  0  0  0  0  0
+          0  0  0  0  0  0  0  0  0  0  0  0  0  0  0  0  0
+          0  0  0  0  0  0  0  0  0  0  0  0  0  0  0  0  0
++         2  2  2  2  2  2  2  2  2  2  2  2  2  2  2  2  2
++         2  2  2  2  2  2  2  2  2  2  2  2  2  2  2  0  0
++         0  0  0  0  0  0  0  0  0  0  0  0  0  0  0  0  0
++         0  0  0  0  0  0  0  0  0  0  0  0  0  0  0  0  0
++         0  0  0  0  0  0  0  0  0  0  0  0  0  0  0  0  0
%c cc cc ccc ccc cccc cccc cccc cccc ccccc ccccc ccccc ccccc
%c cc cc ccc ccc cccc cccc cccc cccc ccccc ccccc ccccc ccccc
%f  0.0000000  0.000000000  0.00000000000  0.000000000000000
%f  0.0000000  0.000000000  0.00000000000  0.000000000000000
%i    0    0    0    0      0      0      0      0         0
%i    0    0    0    0      0      0      0      0         0
/*      NGA, ST. LOUIS,MO.                                  
/*   EPHEMERIS COMPUTED FROM 2 DAYS OF DATA                 
/*   EPOCHA v9 SMOOTHER                                     
/*   G2296 IERS2010 SATIGS SATAPC                           
*  2024  4 17 23 45  0.00000000
P  1      0.000000      0.000000      0.000000 999999.999999                    
V  1      0.000000      0.000000      0.000000 999999.999999                    
P  2  -5364.698254  17177.262335 -18956.733901   -451.578519                    
V  2 -23267.405785   9737.248132  15300.347271      0.065199                    
P  3   7615.518959  19877.632249 -16114.492003    316.397724                    
V  3 -16474.288779 -11565.068190 -22136.673544      0.207309                    
P  4   -941.914126  25888.943840   5554.320154    341.186836                    
V  4  -3982.646081   6428.504050 -30865.697531      0.087376                    
P  5   6481.450982 -13616.649529  21681.256943   -169.514670                    
V  5  22807.593270  16120.676313   3368.629410     -0.013696                    
P  6  25280.527992  -4700.260406  -6819.489424    316.879105                    
V  6  -7535.628900   4661.100997 -30752.115829     -0.181585                    
P  7  15399.041486   9426.001155  20131.897499   -109.615157                    
V  7 -22363.025626   9700.680594  12423.851393     -0.084127                    
P  8  -6083.632343  25228.543197   4336.846251    128.192468                    
V  8  -2675.655047  -6070.317254  31220.690443      0.228218                    
P  9   8962.748847  19068.580714  16060.621769    164.173044                    
V  9  -4591.288485  20150.488423 -21308.998576      0.136913                    
P 10 -22652.069161  -8932.316993 -10778.761290    -10.156602                    
V 10  -9794.381836  -9941.972064  27967.665123     -0.046686                    
P 11  22961.276845 -11971.490359   5816.607149   -639.266729                    
V 11   7801.624513     99.342268 -30759.843320     -0.103704                    
P 12  -4728.930933 -20255.267803 -16834.801550   -497.514536                    
V 12  16440.336557  12863.802086 -20387.713521     -0.034255                    
P 13  13490.504785 -20110.242305  10433.362949    643.573317                    
V 13  -1596.972862  13735.230066  28217.863388      0.030767                    
P 14  22614.762400  11949.439131  -7509.701573    378.919974                    
V 14   5422.739724   8374.401239  29339.206196      0.095163                    
P 15   2828.113568 -25939.175213   3848.312819    149.549515                    
V 15   3818.540537   5533.434325  30779.357612      0.040773                    
P 16 -11919.621568   9339.177012  21509.067289   -314.133341                    
V 16 -20306.795473 -19397.379122  -2348.809757      0.094717                    
P 17  13699.881548   6287.856046 -21437.996510    710.999244                    
V 17  -6344.984651  27492.657707   4084.872516     -0.007819                    
P 18 -15838.081903  -8377.793903  19681.674002   -596.262551                    
V 18  22988.043768  -9526.318592  14267.067287     -0.065400                    
P 19  15908.944383  -3518.085468 -21083.857045    469.676849                    
V 19  -5846.287855  25767.469306  -9158.095306      0.053460                    
P 20  16713.121677  -6699.273741  19539.278743    379.800593                    
V 20  21074.745203  13046.835614 -13744.218392     -0.013861                    
P 21 -10154.721394  17602.770530 -16079.080102    126.733982                    
V 21 -20558.583119   7357.930437  21457.910180     -0.018926                    
P 22  21015.366976   6285.400586 -14345.317722     -1.002393                    
V 22  12093.944374  14931.562495  23855.716042     -0.055680                    
P 23 -21020.788240 -16396.751235    655.680038    203.531105                    
V 23   1892.784192  -1185.797436  32003.901724      0.092872                    
P 24   6487.813844 -18402.964419 -18252.978240   -460.529514                    
V 24  21088.057956  -8350.529279  16702.066899     -0.042920                    
P 25 -14534.837469 -20205.012871  -9974.442117    493.983042                    
V 25  11120.076409   5413.847004 -27875.237410      0.008314                    
P 26 -20939.151104    527.483047  16386.275954    165.270364                    
V 26 -16181.900084 -13623.723744 -19689.182551     -0.051233                    
P 27 -12608.097288  18096.931560  14191.600111    -19.249294                    
V 27    241.078085 -18844.367992  24184.473871     -0.022447                    
P 28 -24621.300571   3476.759836  -9343.931969   -207.520657                    
V 28   9889.081027  -6993.067152 -28705.527195     -0.152381                    
P 29  -5441.617890 -21295.936385  14776.139665   -601.531053                    
V 29   6112.240607 -17965.260708 -23660.093705      0.012238                    
P 30  23192.340254   1455.212553  13244.537722   -403.694284                    
V 30 -14475.819735   8429.901013  24416.277996      0.056269                    
P 31 -24980.234089   9612.686869    630.787956   -228.004467                    
V 31  -1902.263487  -2157.883441 -31344.217970      0.000430                    
P 32 -14846.648644  -2855.427575 -21629.557416   -618.206035                    
V 32   3916.442494 -27689.595403    761.300444     -0.003563                    
EOF
